{
  "type": "FeatureCollection",
  "features": [
    {
      "type": "Feature",
      "properties": {
        "norad_id": 25590,
        "name": "COSMOS 2361",
        "group": "musson",
        "lat": -8.932455386049377,
        "lon": 154.17972539271273,
        "alt_km": 973.3558937259204,
        "timestamp": "2025-12-27T15:27:11.460506+00:00",
        "meta_object_name": "COSMOS 2361",
        "meta_object_id": "1998-076A",
        "meta_epoch": "2025-12-27T04:05:37.857120",
        "meta_mean_motion": 13.73219116,
        "meta_eccentricity": 0.00304131,
        "meta_inclination": 82.9347,
        "meta_ra_of_asc_node": 333.4127,
        "meta_arg_of_pericenter": 223.8805,
        "meta_mean_anomaly": 146.6858,
        "meta_ephemeris_type": 0,
        "meta_classification_type": "U",
        "meta_norad_cat_id": 25590,
        "meta_element_set_no": 999,
        "meta_rev_at_epoch": 35309,
        "meta_bstar": 6.9640842e-05,
        "meta_mean_motion_dot": 8e-07,
        "meta_mean_motion_ddot": 0,
        "tle_line1": "1 25590U 98076A   25361.17057705  .00000080  00000+0  69641-4 0  9997",
        "tle_line2": "2 25590  82.9347 333.4127 0030413 223.8805 146.6858 13.73219116353090"
      },
      "geometry": {
        "type": "Point",
        "coordinates": [
          154.17972539271273,
          -8.932455386049377
        ]
      }
    },
    {
      "type": "Feature",
      "properties": {
        "norad_id": 26818,
        "name": "COSMOS 2378",
        "group": "musson",
        "lat": -48.14715449715076,
        "lon": -19.2937171838924,
        "alt_km": 1012.3846227982312,
        "timestamp": "2025-12-27T15:27:11.460526+00:00",
        "meta_object_name": "COSMOS 2378",
        "meta_object_id": "2001-023A",
        "meta_epoch": "2025-12-27T05:15:28.941408",
        "meta_mean_motion": 13.74143199,
        "meta_eccentricity": 0.00333176,
        "meta_inclination": 82.9272,
        "meta_ra_of_asc_node": 348.9878,
        "meta_arg_of_pericenter": 164.4002,
        "meta_mean_anomaly": 206.5845,
        "meta_ephemeris_type": 0,
        "meta_classification_type": "U",
        "meta_norad_cat_id": 26818,
        "meta_element_set_no": 999,
        "meta_rev_at_epoch": 23122,
        "meta_bstar": 5.547045e-05,
        "meta_mean_motion_dot": 6.8e-07,
        "meta_mean_motion_ddot": 0,
        "tle_line1": "1 26818U 01023A   25361.21908497  .00000068  00000+0  55470-4 0  9996",
        "tle_line2": "2 26818  82.9272 348.9878 0033317 164.4002 206.5845 13.74143199231220"
      },
      "geometry": {
        "type": "Point",
        "coordinates": [
          -19.2937171838924,
          -48.14715449715076
        ]
      }
    },
    {
      "type": "Feature",
      "properties": {
        "norad_id": 27436,
        "name": "COSMOS 2389",
        "group": "musson",
        "lat": -32.12044656594731,
        "lon": 120.4070242565936,
        "alt_km": 1020.9141742583761,
        "timestamp": "2025-12-27T15:27:11.460540+00:00",
        "meta_object_name": "COSMOS 2389",
        "meta_object_id": "2002-026A",
        "meta_epoch": "2025-12-27T07:59:33.050688",
        "meta_mean_motion": 13.75156231,
        "meta_eccentricity": 0.00469567,
        "meta_inclination": 82.9514,
        "meta_ra_of_asc_node": 296.1823,
        "meta_arg_of_pericenter": 20.8637,
        "meta_mean_anomaly": 93.4735,
        "meta_ephemeris_type": 0,
        "meta_classification_type": "U",
        "meta_norad_cat_id": 27436,
        "meta_element_set_no": 999,
        "meta_rev_at_epoch": 18349,
        "meta_bstar": 6.5448532e-05,
        "meta_mean_motion_dot": 7.8e-07,
        "meta_mean_motion_ddot": 0,
        "tle_line1": "1 27436U 02026A   25361.33302142  .00000078  00000+0  65449-4 0  9993",
        "tle_line2": "2 27436  82.9514 296.1823 0046956  20.8637  93.4735 13.75156231183490"
      },
      "geometry": {
        "type": "Point",
        "coordinates": [
          120.4070242565936,
          -32.12044656594731
        ]
      }
    },
    {
      "type": "Feature",
      "properties": {
        "norad_id": 27818,
        "name": "COSMOS 2398",
        "group": "musson",
        "lat": 16.166563533820838,
        "lon": -96.2277332475975,
        "alt_km": 977.9524633371757,
        "timestamp": "2025-12-27T15:27:11.460553+00:00",
        "meta_object_name": "COSMOS 2398",
        "meta_object_id": "2003-023A",
        "meta_epoch": "2025-12-27T05:25:12.592416",
        "meta_mean_motion": 13.72387353,
        "meta_eccentricity": 0.00326765,
        "meta_inclination": 82.9481,
        "meta_ra_of_asc_node": 262.0239,
        "meta_arg_of_pericenter": 73.2154,
        "meta_mean_anomaly": 39.2775,
        "meta_ephemeris_type": 0,
        "meta_classification_type": "U",
        "meta_norad_cat_id": 27818,
        "meta_element_set_no": 999,
        "meta_rev_at_epoch": 13015,
        "meta_bstar": 6.3402989e-05,
        "meta_mean_motion_dot": 7.4e-07,
        "meta_mean_motion_ddot": 0,
        "tle_line1": "1 27818U 03023A   25361.22584019  .00000074  00000+0  63403-4 0  9992",
        "tle_line2": "2 27818  82.9481 262.0239 0032676  73.2154  39.2775 13.72387353130155"
      },
      "geometry": {
        "type": "Point",
        "coordinates": [
          -96.2277332475975,
          16.166563533820838
        ]
      }
    },
    {
      "type": "Feature",
      "properties": {
        "norad_id": 28380,
        "name": "COSMOS 2407",
        "group": "musson",
        "lat": 62.35769543545144,
        "lon": -144.49422964593,
        "alt_km": 951.8313708889646,
        "timestamp": "2025-12-27T15:27:11.460564+00:00",
        "meta_object_name": "COSMOS 2407",
        "meta_object_id": "2004-028A",
        "meta_epoch": "2025-12-27T07:15:48.477024",
        "meta_mean_motion": 13.7631525,
        "meta_eccentricity": 0.00395925,
        "meta_inclination": 82.9593,
        "meta_ra_of_asc_node": 202.11,
        "meta_arg_of_pericenter": 14.9644,
        "meta_mean_anomaly": 158.1515,
        "meta_ephemeris_type": 0,
        "meta_classification_type": "U",
        "meta_norad_cat_id": 28380,
        "meta_element_set_no": 999,
        "meta_rev_at_epoch": 7623,
        "meta_bstar": 4.7748254e-05,
        "meta_mean_motion_dot": 6.2e-07,
        "meta_mean_motion_ddot": 0,
        "tle_line1": "1 28380U 04028A   25361.30264441  .00000062  00000+0  47748-4 0  9997",
        "tle_line2": "2 28380  82.9593 202.1100 0039592  14.9644 158.1515 13.76315250 76238"
      },
      "geometry": {
        "type": "Point",
        "coordinates": [
          -144.49422964593,
          62.35769543545144
        ]
      }
    },
    {
      "type": "Feature",
      "properties": {
        "norad_id": 28521,
        "name": "COSMOS 2414",
        "group": "musson",
        "lat": -47.346963994547195,
        "lon": 1.1101842995619269,
        "alt_km": 961.9296037815739,
        "timestamp": "2025-12-27T15:27:11.460581+00:00",
        "meta_object_name": "COSMOS 2414",
        "meta_object_id": "2005-002A",
        "meta_epoch": "2025-12-27T05:42:43.739136",
        "meta_mean_motion": 13.879048,
        "meta_eccentricity": 0.00414502,
        "meta_inclination": 82.949,
        "meta_ra_of_asc_node": 173.6965,
        "meta_arg_of_pericenter": 99.5469,
        "meta_mean_anomaly": 261.0382,
        "meta_ephemeris_type": 0,
        "meta_classification_type": "U",
        "meta_norad_cat_id": 28521,
        "meta_element_set_no": 999,
        "meta_rev_at_epoch": 5996,
        "meta_bstar": 5.8432378e-05,
        "meta_mean_motion_dot": 8.6e-07,
        "meta_mean_motion_ddot": 0,
        "tle_line1": "1 28521U 05002A   25361.23800624  .00000086  00000+0  58432-4 0  9996",
        "tle_line2": "2 28521  82.9490 173.6965 0041450  99.5469 261.0382 13.87904800 59966"
      },
      "geometry": {
        "type": "Point",
        "coordinates": [
          1.1101842995619269,
          -47.346963994547195
        ]
      }
    },
    {
      "type": "Feature",
      "properties": {
        "norad_id": 32052,
        "name": "COSMOS 2429",
        "group": "musson",
        "lat": 37.81828716543428,
        "lon": -22.1914716663824,
        "alt_km": 957.1364157545977,
        "timestamp": "2025-12-27T15:27:11.460602+00:00",
        "meta_object_name": "COSMOS 2429",
        "meta_object_id": "2007-038A",
        "meta_epoch": "2025-12-27T06:32:18.000384",
        "meta_mean_motion": 13.75150856,
        "meta_eccentricity": 0.00383593,
        "meta_inclination": 82.981,
        "meta_ra_of_asc_node": 332.595,
        "meta_arg_of_pericenter": 357.7669,
        "meta_mean_anomaly": 2.331,
        "meta_ephemeris_type": 0,
        "meta_classification_type": "U",
        "meta_norad_cat_id": 32052,
        "meta_element_set_no": 999,
        "meta_rev_at_epoch": 91802,
        "meta_bstar": 6.6146117e-05,
        "meta_mean_motion_dot": 7.9e-07,
        "meta_mean_motion_ddot": 0,
        "tle_line1": "1 32052U 07038A   25361.27243056  .00000079  00000+0  66146-4 0  9998",
        "tle_line2": "2 32052  82.9810 332.5950 0038359 357.7669   2.3310 13.75150856918020"
      },
      "geometry": {
        "type": "Point",
        "coordinates": [
          -22.1914716663824,
          37.81828716543428
        ]
      }
    },
    {
      "type": "Feature",
      "properties": {
        "norad_id": 35635,
        "name": "COSMOS 2454",
        "group": "musson",
        "lat": 25.76791598186499,
        "lon": 160.76851817205346,
        "alt_km": 913.5569573427056,
        "timestamp": "2025-12-27T15:27:11.460614+00:00",
        "meta_object_name": "COSMOS 2454",
        "meta_object_id": "2009-039A",
        "meta_epoch": "2025-12-27T04:04:13.625760",
        "meta_mean_motion": 13.8993039,
        "meta_eccentricity": 0.00198913,
        "meta_inclination": 82.9559,
        "meta_ra_of_asc_node": 157.7063,
        "meta_arg_of_pericenter": 34.8041,
        "meta_mean_anomaly": 139.4805,
        "meta_ephemeris_type": 0,
        "meta_classification_type": "U",
        "meta_norad_cat_id": 35635,
        "meta_element_set_no": 999,
        "meta_rev_at_epoch": 83350,
        "meta_bstar": 5.8932066e-05,
        "meta_mean_motion_dot": 8.9e-07,
        "meta_mean_motion_ddot": 0,
        "tle_line1": "1 35635U 09039A   25361.16960215  .00000089  00000+0  58932-4 0  9997",
        "tle_line2": "2 35635  82.9559 157.7063 0019891  34.8041 139.4805 13.89930390833503"
      },
      "geometry": {
        "type": "Point",
        "coordinates": [
          160.76851817205346,
          25.76791598186499
        ]
      }
    },
    {
      "type": "Feature",
      "properties": {
        "norad_id": 36519,
        "name": "COSMOS 2463",
        "group": "musson",
        "lat": 13.33759629713705,
        "lon": -165.9193892980297,
        "alt_km": 989.5654623846485,
        "timestamp": "2025-12-27T15:27:11.460625+00:00",
        "meta_object_name": "COSMOS 2463",
        "meta_object_id": "2010-017A",
        "meta_epoch": "2025-12-27T04:29:02.150880",
        "meta_mean_motion": 13.71650374,
        "meta_eccentricity": 0.00348574,
        "meta_inclination": 82.9602,
        "meta_ra_of_asc_node": 16.0951,
        "meta_arg_of_pericenter": 246.474,
        "meta_mean_anomaly": 184.7384,
        "meta_ephemeris_type": 0,
        "meta_classification_type": "U",
        "meta_norad_cat_id": 36519,
        "meta_element_set_no": 999,
        "meta_rev_at_epoch": 78435,
        "meta_bstar": 3.7871441e-05,
        "meta_mean_motion_dot": 4.9e-07,
        "meta_mean_motion_ddot": 0,
        "tle_line1": "1 36519U 10017A   25361.18683045  .00000049  00000+0  37871-4 0  9997",
        "tle_line2": "2 36519  82.9602  16.0951 0034857 246.4740 184.7384 13.71650374784358"
      },
      "geometry": {
        "type": "Point",
        "coordinates": [
          -165.9193892980297,
          13.33759629713705
        ]
      }
    }
  ]
}